OBJECT C                
1 57582U 23117C   24137.16312889  .00013013  00000+0  68890-3 0  9997
2 57582  97.4867 209.6631 0011814  52.6583 307.5723 15.15495751 42333
